[{"OBJECT_NAME":"EOSSAT-1","OBJECT_ID":"2023-001AW","EPOCH":"2026-03-09T17:40:07.010400","MEAN_MOTION":15.32339828,"ECCENTRICITY":0.00112629,"INCLINATION":97.3357,"RA_OF_ASC_NODE":130.2294,"ARG_OF_PERICENTER":110.3168,"MEAN_ANOMALY":249.9285,"EPHEMERIS_TYPE":0,"CLASSIFICATION_TYPE":"U","NORAD_CAT_ID":55053,"ELEMENT_SET_NO":999,"REV_AT_EPOCH":17668,"BSTAR":0.00024844399,"MEAN_MOTION_DOT":7.695e-5,"MEAN_MOTION_DDOT":0},{"OBJECT_NAME":"STARLINK-35403","OBJECT_ID":"2025-235Z","EPOCH":"2026-03-09T19:20:42.203328","MEAN_MOTION":15.30204054,"ECCENTRICITY":0.00010172,"INCLINATION":53.1594,"RA_OF_ASC_NODE":244.413,"ARG_OF_PERICENTER":94.1706,"MEAN_ANOMALY":265.9411,"EPHEMERIS_TYPE":0,"CLASSIFICATION_TYPE":"U","NORAD_CAT_ID":66081,"ELEMENT_SET_NO":999,"REV_AT_EPOCH":2294,"BSTAR":0.0007062888,"MEAN_MOTION_DOT":0.0002062,"MEAN_MOTION_DDOT":0}]
